{"type": "FeatureCollection", "features": [ {"type": "Feature", "properties": {"norad_id": 29750, "name": "FENGYUN 1C DEB", "group": "fengyun-1c-debris", "lat": 78.83692582562128, "lon": -23.153120508251785, "alt_km": 878.5824809896685, "timestamp": "2025-12-25T09:48:52.561370+00:00", "meta": {"OBJECT_NAME": "FENGYUN 1C DEB", "OBJECT_ID": "1999-025AQ", "EPOCH": "2025-12-24T22:04:12.480096", "MEAN_MOTION": 14.09654291, "ECCENTRICITY": 0.00350871, "INCLINATION": 98.7534, "RA_OF_ASC_NODE": 27.7017, "ARG_OF_PERICENTER": 266.0459, "MEAN_ANOMALY": 215.0455, "EPHEMERIS_TYPE": 0, "CLASSIFICATION_TYPE": "U", "NORAD_CAT_ID": 29750, "ELEMENT_SET_NO": 999, "REV_AT_EPOCH": 97245, "BSTAR": 0.00021595556, "MEAN_MOTION_DOT": 3.37e-06, "MEAN_MOTION_DDOT": 0}, "tle": {"line1": "1 29750U 99025AQ  25358.91958889  .00000337  00000+0  21596-3 0  9996", "line2": "2 29750  98.7534  27.7017 0035087 266.0459 215.0455 14.09654291972450"}}, "geometry": {"type": "Point", "coordinates": [-23.153120508251785, 78.83692582562128]}}, {"type": "Feature", "properties": {"norad_id": 29751, "name": "FENGYUN 1C DEB", "group": "fengyun-1c-debris", "lat": 42.278449829600824, "lon": -145.23299747285452, "alt_km": 755.8802409079008, "timestamp": "2025-12-25T09:48:52.561380+00:00", "meta": {"OBJECT_NAME": "FENGYUN 1C DEB", "OBJECT_ID": "1999-025AR", "EPOCH": "2025-12-24T01:23:14.059968", "MEAN_MOTION": 14.23637933, "ECCENTRICITY": 0.00901606, "INCLINATION": 98.5403, "RA_OF_ASC_NODE": 25.6023, "ARG_OF_PERICENTER": 106.5991, "MEAN_ANOMALY": 309.0833, "EPHEMERIS_TYPE": 0, "CLASSIFICATION_TYPE": "U", "NORAD_CAT_ID": 29751, "ELEMENT_SET_NO": 999, "REV_AT_EPOCH": 98234, "BSTAR": 0.00015095395, "MEAN_MOTION_DOT": 3.17e-06, "MEAN_MOTION_DDOT": 0}, "tle": {"line1": "1 29751U 99025AR  25358.05780162  .00000317  00000+0  15095-3 0  9994", "line2": "2 29751  98.5403  25.6023 0090160 106.5991 309.0833 14.23637933982343"}}, "geometry": {"type": "Point", "coordinates": [-145.23299747285452, 42.278449829600824]}}, {"type": "Feature", "properties": {"norad_id": 29754, "name": "FENGYUN 1C DEB", "group": "fengyun-1c-debris", "lat": 65.7393438389386, "lon": 81.87330167388038, "alt_km": 840.5300347923876, "timestamp": "2025-12-25T09:48:52.561390+00:00", "meta": {"OBJECT_NAME": "FENGYUN 1C DEB", "OBJECT_ID": "1999-025AU", "EPOCH": "2025-12-23T13:34:24.659616", "MEAN_MOTION": 14.1918902, "ECCENTRICITY": 0.00365213, "INCLINATION": 98.8844, "RA_OF_ASC_NODE": 100.3332, "ARG_OF_PERICENTER": 208.6961, "MEAN_ANOMALY": 166.2554, "EPHEMERIS_TYPE": 0, "CLASSIFICATION_TYPE": "U", "NORAD_CAT_ID": 29754, "ELEMENT_SET_NO": 999, "REV_AT_EPOCH": 97508, "BSTAR": 0.00082676546, "MEAN_MOTION_DOT": 1.698e-05, "MEAN_MOTION_DDOT": 0}, "tle": {"line1": "1 29754U 99025AU  25357.56556319  .00001698  00000+0  82677-3 0  9990", "line2": "2 29754  98.8844 100.3332 0036521 208.6961 166.2554 14.19189020975084"}}, "geometry": {"type": "Point", "coordinates": [81.87330167388038, 65.7393438389386]}}, {"type": "Feature", "properties": {"norad_id": 29758, "name": "FENGYUN 1C DEB", "group": "fengyun-1c-debris", "lat": -53.48068327391938, "lon": 127.72762710259981, "alt_km": 748.762546051159, "timestamp": "2025-12-25T09:48:52.561400+00:00", "meta": {"OBJECT_NAME": "FENGYUN 1C DEB", "OBJECT_ID": "1999-025AY", "EPOCH": "2025-12-24T19:46:45.797088", "MEAN_MOTION": 14.41163149, "ECCENTRICITY": 0.00223232, "INCLINATION": 98.8552, "RA_OF_ASC_NODE": 114.9685, "ARG_OF_PERICENTER": 270.9584, "MEAN_ANOMALY": 242.2102, "EPHEMERIS_TYPE": 0, "CLASSIFICATION_TYPE": "U", "NORAD_CAT_ID": 29758, "ELEMENT_SET_NO": 999, "REV_AT_EPOCH": 97845, "BSTAR": 0.0025949731, "MEAN_MOTION_DOT": 8.355e-05, "MEAN_MOTION_DDOT": 0}, "tle": {"line1": "1 29758U 99025AY  25358.82414117  .00008355  00000+0  25950-2 0  9990", "line2": "2 29758  98.8552 114.9685 0022323 270.9584 242.2102 14.41163149978451"}}, "geometry": {"type": "Point", "coordinates": [127.72762710259981, -53.48068327391938]}}, {"type": "Feature", "properties": {"norad_id": 29760, "name": "FENGYUN 1C DEB", "group": "fengyun-1c-debris", "lat": -25.29855882083997, "lon": 5.394165327478191, "alt_km": 961.8501869470392, "timestamp": "2025-12-25T09:48:52.561411+00:00", "meta": {"OBJECT_NAME": "FENGYUN 1C DEB", "OBJECT_ID": "1999-025BA", "EPOCH": "2025-12-24T13:28:36.832224", "MEAN_MOTION": 14.08296429, "ECCENTRICITY": 0.01313581, "INCLINATION": 98.7624, "RA_OF_ASC_NODE": 0.3904, "ARG_OF_PERICENTER": 140.294, "MEAN_ANOMALY": 220.7936, "EPHEMERIS_TYPE": 0, "CLASSIFICATION_TYPE": "U", "NORAD_CAT_ID": 29760, "ELEMENT_SET_NO": 999, "REV_AT_EPOCH": 97259, "BSTAR": 0.00011951651, "MEAN_MOTION_DOT": 1.79e-06, "MEAN_MOTION_DDOT": 0}, "tle": {"line1": "1 29760U 99025BA  25358.56153741  .00000179  00000+0  11952-3 0  9991", "line2": "2 29760  98.7624   0.3904 0131358 140.2940 220.7936 14.08296429972595"}}, "geometry": {"type": "Point", "coordinates": [5.394165327478191, -25.29855882083997]}}, {"type": "Feature", "properties": {"norad_id": 29762, "name": "FENGYUN 1C DEB", "group": "fengyun-1c-debris", "lat": -49.405131419065576, "lon": 151.72981452588954, "alt_km": 767.5056241633074, "timestamp": "2025-12-25T09:48:52.561421+00:00", "meta": {"OBJECT_NAME": "FENGYUN 1C DEB", "OBJECT_ID": "1999-025BC", "EPOCH": "2025-12-24T22:52:33.756672", "MEAN_MOTION": 14.22607235, "ECCENTRICITY": 0.02033731, "INCLINATION": 98.5807, "RA_OF_ASC_NODE": 341.4337, "ARG_OF_PERICENTER": 300.0431, "MEAN_ANOMALY": 119.3356, "EPHEMERIS_TYPE": 0, "CLASSIFICATION_TYPE": "U", "NORAD_CAT_ID": 29762, "ELEMENT_SET_NO": 999, "REV_AT_EPOCH": 98122, "BSTAR": 0.00034466544, "MEAN_MOTION_DOT": 9.04e-06, "MEAN_MOTION_DDOT": 0}, "tle": {"line1": "1 29762U 99025BC  25358.95316848  .00000904  00000+0  34467-3 0  9997", "line2": "2 29762  98.5807 341.4337 0203373 300.0431 119.3356 14.22607235981221"}}, "geometry": {"type": "Point", "coordinates": [151.72981452588954, -49.405131419065576]}}, {"type": "Feature", "properties": {"norad_id": 29763, "name": "FENGYUN 1C DEB", "group": "fengyun-1c-debris", "lat": 32.184066725263335, "lon": 164.01491120918558, "alt_km": 772.0326027277297, "timestamp": "2025-12-25T09:48:52.561432+00:00", "meta": {"OBJECT_NAME": "FENGYUN 1C DEB", "OBJECT_ID": "1999-025BD", "EPOCH": "2025-12-24T16:53:27.454272", "MEAN_MOTION": 14.07883589, "ECCENTRICITY": 0.01279626, "INCLINATION": 98.7628, "RA_OF_ASC_NODE": 337.7599, "ARG_OF_PERICENTER": 146.8069, "MEAN_ANOMALY": 28.4352, "EPHEMERIS_TYPE": 0, "CLASSIFICATION_TYPE": "U", "NORAD_CAT_ID": 29763, "ELEMENT_SET_NO": 999, "REV_AT_EPOCH": 97218, "BSTAR": 0.00025589452, "MEAN_MOTION_DOT": 4.26e-06, "MEAN_MOTION_DDOT": 0}, "tle": {"line1": "1 29763U 99025BD  25358.70378998  .00000426  00000+0  25589-3 0  9999", "line2": "2 29763  98.7628 337.7599 0127962 146.8069  28.4352 14.07883589972187"}}, "geometry": {"type": "Point", "coordinates": [164.01491120918558, 32.184066725263335]}}, {"type": "Feature", "properties": {"norad_id": 29765, "name": "FENGYUN 1C DEB", "group": "fengyun-1c-debris", "lat": 49.101930685513985, "lon": -152.466297163804, "alt_km": 868.3370896402403, "timestamp": "2025-12-25T09:48:52.561443+00:00", "meta": {"OBJECT_NAME": "FENGYUN 1C DEB", "OBJECT_ID": "1999-025BF", "EPOCH": "2025-12-24T00:47:34.587744", "MEAN_MOTION": 14.02152304, "ECCENTRICITY": 0.00601148, "INCLINATION": 98.829, "RA_OF_ASC_NODE": 15.8641, "ARG_OF_PERICENTER": 61.5612, "MEAN_ANOMALY": 326.4375, "EPHEMERIS_TYPE": 0, "CLASSIFICATION_TYPE": "U", "NORAD_CAT_ID": 29765, "ELEMENT_SET_NO": 999, "REV_AT_EPOCH": 96909, "BSTAR": -6.8770984e-05, "MEAN_MOTION_DOT": -1.49e-06, "MEAN_MOTION_DDOT": 0}, "tle": {"line1": "1 29765U 99025BF  25358.03303921 -.00000149  00000+0 -68771-4 0  9996", "line2": "2 29765  98.8290  15.8641 0060114  61.5612 326.4375 14.02152304969090"}}, "geometry": {"type": "Point", "coordinates": [-152.466297163804, 49.101930685513985]}}, {"type": "Feature", "properties": {"norad_id": 29766, "name": "FENGYUN 1C DEB", "group": "fengyun-1c-debris", "lat": 47.20505771111583, "lon": -61.15613207974078, "alt_km": 995.5297861789795, "timestamp": "2025-12-25T09:48:52.561453+00:00", "meta": {"OBJECT_NAME": "FENGYUN 1C DEB", "OBJECT_ID": "1999-025BG", "EPOCH": "2025-12-24T18:29:27.573792", "MEAN_MOTION": 13.97090701, "ECCENTRICITY": 0.01455911, "INCLINATION": 98.6865, "RA_OF_ASC_NODE": 307.7445, "ARG_OF_PERICENTER": 254.7012, "MEAN_ANOMALY": 183.0893, "EPHEMERIS_TYPE": 0, "CLASSIFICATION_TYPE": "U", "NORAD_CAT_ID": 29766, "ELEMENT_SET_NO": 999, "REV_AT_EPOCH": 95972, "BSTAR": 0.00090558644, "MEAN_MOTION_DOT": 1.341e-05, "MEAN_MOTION_DDOT": 0}, "tle": {"line1": "1 29766U 99025BG  25358.77045803  .00001341  00000+0  90559-3 0  9991", "line2": "2 29766  98.6865 307.7445 0145591 254.7012 183.0893 13.97090701959721"}}, "geometry": {"type": "Point", "coordinates": [-61.15613207974078, 47.20505771111583]}}, {"type": "Feature", "properties": {"norad_id": 29767, "name": "FENGYUN 1C DEB", "group": "fengyun-1c-debris", "lat": -44.02465752707113, "lon": 138.87242051715742, "alt_km": 1115.62737347256, "timestamp": "2025-12-25T09:48:52.561463+00:00", "meta": {"OBJECT_NAME": "FENGYUN 1C DEB", "OBJECT_ID": "1999-025BH", "EPOCH": "2025-12-24T21:02:57.188256", "MEAN_MOTION": 14.03468292, "ECCENTRICITY": 0.03326916, "INCLINATION": 98.1996, "RA_OF_ASC_NODE": 326.4024, "ARG_OF_PERICENTER": 26.8, "MEAN_ANOMALY": 33.1357, "EPHEMERIS_TYPE": 0, "CLASSIFICATION_TYPE": "U", "NORAD_CAT_ID": 29767, "ELEMENT_SET_NO": 999, "REV_AT_EPOCH": 95770, "BSTAR": 0.0027100677, "MEAN_MOTION_DOT": 6.906e-05, "MEAN_MOTION_DDOT": 0}, "tle": {"line1": "1 29767U 99025BH  25358.87705079  .00006906  00000+0  27101-2 0  9995", "line2": "2 29767  98.1996 326.4024 0332691  26.8000  33.1357 14.03468292957705"}}, "geometry": {"type": "Point", "coordinates": [138.87242051715742, -44.02465752707113]}}]}